{"type": "FeatureCollection", "features": [{"type": "Feature", "properties": {"id": 1}, "geometry": {"type": "Polygon", "coordinates": [[[3710.3046153846158, 1891.6030769230772], [3641.2400000000002, 1956.8307692307694], [3648.9138461538464, 2033.569230769231], [3668.098461538462, 2060.4276923076927], [3664.2615384615387, 2091.123076923077], [3694.9569230769234, 2121.8184615384616], [3821.575384615385, 1983.689230769231], [3710.3046153846158, 1891.6030769230772]]]}}, {"type": "Feature", "properties": {"id": 2}, "geometry": {"type": "Polygon", "coordinates": [[[3257.5476923076926, 2256.1107692307696], [3541.4800000000005, 2428.772307692308], [3622.055384615385, 2455.6307692307696], [3641.2400000000002, 2225.415384615385], [3472.415384615385, 2202.3938461538464], [3457.0676923076926, 2236.926153846154], [3434.046153846154, 2252.2738461538465], [3257.5476923076926, 2256.1107692307696]]]}}, {"type": "Feature", "properties": {"id": 3}, "geometry": {"type": "Polygon", "coordinates": [[[3813.901538461539, 2616.7815384615387], [3825.412307692308, 2643.6400000000003], [3894.4769230769234, 2662.8246153846158], [3890.6400000000003, 2820.138461538462], [3990.4000000000005, 2870.018461538462], [4009.584615384616, 2804.7907692307695], [3990.4000000000005, 2739.563076923077], [3967.378461538462, 2747.236923076923], [3929.009230769231, 2724.215384615385], [3944.3569230769235, 2678.172307692308], [3936.6830769230774, 2639.8030769230772], [3813.901538461539, 2616.7815384615387]]]}}, {"type": "Feature", "properties": {"id": 4}, "geometry": {"type": "Polygon", "coordinates": [[[2179.372307692308, 2820.138461538462], [2171.6984615384617, 2850.8338461538465], [2144.84, 2877.692307692308], [2294.48, 3019.658461538462], [2329.012307692308, 3011.9846153846156], [2371.2184615384617, 2919.898461538462], [2179.372307692308, 2820.138461538462]]]}}, {"type": "Feature", "properties": {"id": 5}, "geometry": {"type": "Polygon", "coordinates": [[[4282.006153846154, 2988.963076923077], [4147.713846153846, 2954.4307692307693], [4124.6923076923085, 2962.1046153846155], [4101.67076923077, 2946.756923076923], [4021.0953846153852, 3011.9846153846156], [4036.4430769230776, 3042.6800000000003], [3978.8892307692313, 3107.9076923076927], [3948.1938461538466, 3115.581538461539], [3952.0307692307697, 3138.6030769230774], [3894.4769230769234, 3192.32], [3936.6830769230774, 3234.526153846154], [3936.6830769230774, 3249.8738461538464], [3894.4769230769234, 3295.9169230769235], [3982.7261538461544, 3338.1230769230774], [4282.006153846154, 2988.963076923077]]]}}, {"type": "Feature", "properties": {"id": 6}, "geometry": {"type": "Polygon", "coordinates": [[[4439.320000000001, 3215.3415384615387], [4477.6892307692315, 3288.2430769230773], [4496.873846153847, 3299.7538461538466], [4500.71076923077, 3334.2861538461543], [4531.406153846155, 3361.144615384616], [4527.569230769232, 3384.166153846154], [4546.753846153847, 3395.6769230769232], [4542.916923076924, 3414.8615384615387], [4581.286153846155, 3457.0676923076926], [4700.2307692307695, 3514.621538461539], [4742.436923076923, 3468.578461538462], [4807.664615384616, 3449.3938461538464], [4512.221538461539, 3272.895384615385], [4504.547692307693, 3246.0369230769234], [4450.83076923077, 3211.5046153846156], [4439.320000000001, 3215.3415384615387]]]}}, {"type": "Feature", "properties": {"id": 7}, "geometry": {"type": "Polygon", "coordinates": [[[2532.369230769231, 3326.612307692308], [2528.5323076923078, 3288.2430769230773], [2382.729230769231, 3318.938461538462], [2252.2738461538465, 3292.0800000000004], [2175.535384615385, 3299.7538461538466], [2202.3938461538464, 3376.4923076923083], [2233.089230769231, 3395.6769230769232], [2282.969230769231, 3395.6769230769232], [2532.369230769231, 3326.612307692308]]]}}, {"type": "Feature", "properties": {"id": 8}, "geometry": {"type": "Polygon", "coordinates": [[[2463.3046153846158, 3491.6000000000004], [2332.849230769231, 3595.1969230769237], [2378.892307692308, 3698.7938461538465], [2432.609230769231, 3656.5876923076926], [2509.347692307693, 3683.446153846154], [2570.7384615384617, 3622.055384615385], [2463.3046153846158, 3491.6000000000004]]]}}, {"type": "Feature", "properties": {"id": 9}, "geometry": {"type": "Polygon", "coordinates": [[[3054.1907692307695, 3641.2400000000002], [3035.006153846154, 3721.815384615385], [3042.6800000000003, 3741.0000000000005], [3081.049230769231, 3737.1630769230774], [3196.1569230769232, 3771.695384615385], [3207.6676923076925, 3794.7169230769236], [3349.6338461538467, 3863.7815384615387], [3372.655384615385, 3867.618461538462], [3380.3292307692313, 3848.4338461538464], [3407.1876923076925, 3833.086153846154], [3426.372307692308, 3783.2061538461544], [3411.0246153846156, 3752.5107692307697], [3361.144615384616, 3752.5107692307697], [3334.2861538461543, 3779.3692307692313], [3284.406153846154, 3744.8369230769235], [3299.7538461538466, 3671.935384615385], [3257.5476923076926, 3645.0769230769233], [3257.5476923076926, 3606.7076923076925], [3176.972307692308, 3595.1969230769237], [3146.2769230769236, 3625.892307692308], [3096.3969230769235, 3618.2184615384617], [3054.1907692307695, 3641.2400000000002]]]}}, {"type": "Feature", "properties": {"id": 10}, "geometry": {"type": "Polygon", "coordinates": [[[3449.3938461538464, 4312.701538461539], [3411.0246153846156, 4312.701538461539], [3299.7538461538466, 4278.169230769231], [3295.9169230769235, 4389.4400000000005], [3249.8738461538464, 4420.135384615385], [3199.9938461538463, 4427.809230769231], [3199.9938461538463, 4485.363076923078], [3215.3415384615387, 4500.71076923077], [3223.015384615385, 4546.753846153847], [3211.5046153846156, 4600.470769230769], [3219.1784615384618, 4608.1446153846155], [3242.2000000000003, 4596.633846153846], [3238.363076923077, 4569.7753846153855], [3307.4276923076927, 4516.058461538462], [3318.938461538462, 4523.7323076923085], [3353.4707692307697, 4493.036923076924], [3341.9600000000005, 4470.015384615385], [3403.3507692307694, 4423.972307692308], [3418.6984615384617, 4400.95076923077], [3422.535384615385, 4328.049230769231], [3449.3938461538464, 4312.701538461539]]]}}, {"type": "Feature", "properties": {"id": 11}, "geometry": {"type": "Polygon", "coordinates": [[[3978.8892307692313, 1293.043076923077], [3836.923076923077, 1377.4553846153847], [3952.0307692307697, 1511.7476923076924], [3978.8892307692313, 1492.563076923077], [4036.4430769230776, 1500.2369230769232], [4036.4430769230776, 1465.7046153846156], [4055.6276923076925, 1454.1938461538464], [3978.8892307692313, 1293.043076923077]]]}}, {"type": "Feature", "properties": {"id": 12}, "geometry": {"type": "Polygon", "coordinates": [[[2317.5015384615385, 1880.092307692308], [2282.969230769231, 1929.9723076923078], [2279.132307692308, 1968.3415384615387], [2179.372307692308, 2094.96], [2198.5569230769233, 2156.3507692307694], [2267.621538461539, 2194.7200000000003], [2294.48, 2190.883076923077], [2398.0769230769233, 2225.415384615385], [2382.729230769231, 2210.0676923076926], [2340.523076923077, 2029.7323076923078], [2340.523076923077, 2010.5476923076926], [2355.8707692307694, 1995.2000000000003], [2340.523076923077, 1983.689230769231], [2317.5015384615385, 1880.092307692308]]]}}, {"type": "Feature", "properties": {"id": 13}, "geometry": {"type": "Polygon", "coordinates": [[[3691.1200000000003, 2175.535384615385], [3656.5876923076926, 2244.6000000000004], [3637.403076923077, 2455.6307692307696], [3733.3261538461543, 2470.978461538462], [3764.021538461539, 2275.295384615385], [3744.8369230769235, 2263.784615384616], [3744.8369230769235, 2236.926153846154], [3775.532307692308, 2187.046153846154], [3691.1200000000003, 2175.535384615385]]]}}, {"type": "Feature", "properties": {"id": 14}, "geometry": {"type": "Polygon", "coordinates": [[[2670.498461538462, 2593.76], [2670.498461538462, 2670.498461538462], [2682.009230769231, 2678.172307692308], [2674.335384615385, 2716.541538461539], [2724.215384615385, 2747.236923076923], [2720.378461538462, 2766.4215384615386], [2682.009230769231, 2785.606153846154], [2689.6830769230774, 2896.8769230769235], [2701.1938461538466, 2904.5507692307697], [2697.3569230769235, 2965.9415384615386], [2712.704615384616, 2977.452307692308], [2697.3569230769235, 3004.3107692307694], [2712.704615384616, 3104.0707692307697], [2735.726153846154, 3058.0276923076926], [2743.4, 3008.1476923076925], [2777.932307692308, 2988.963076923077], [2785.606153846154, 2939.0830769230774], [2831.649230769231, 2908.3876923076928], [2823.975384615385, 2877.692307692308], [2854.6707692307696, 2850.8338461538465], [2831.649230769231, 2774.095384615385], [2785.606153846154, 2800.9538461538464], [2754.9107692307693, 2766.4215384615386], [2758.7476923076924, 2747.236923076923], [2823.975384615385, 2705.0307692307697], [2804.7907692307695, 2624.455384615385], [2789.443076923077, 2605.2707692307695], [2724.215384615385, 2609.1076923076926], [2670.498461538462, 2593.76]]]}}, {"type": "Feature", "properties": {"id": 15}, "geometry": {"type": "Polygon", "coordinates": [[[2029.7323076923078, 3027.332307692308], [1983.689230769231, 3107.9076923076927], [1991.3630769230772, 3180.809230769231], [2025.8953846153847, 3192.32], [2033.569230769231, 3223.015384615385], [2125.6553846153847, 3249.8738461538464], [2102.633846153846, 3184.646153846154], [2110.3076923076924, 3161.624615384616], [2091.123076923077, 3150.1138461538467], [2098.796923076923, 3119.418461538462], [2087.286153846154, 3107.9076923076927], [2087.286153846154, 3081.049230769231], [2098.796923076923, 3073.375384615385], [2068.101538461539, 3065.701538461539], [2029.7323076923078, 3027.332307692308]]]}}, {"type": "Feature", "properties": {"id": 16}, "geometry": {"type": "Polygon", "coordinates": [[[3499.2738461538465, 3092.5600000000004], [3464.7415384615388, 3104.0707692307697], [3483.926153846154, 3123.255384615385], [3480.089230769231, 3142.4400000000005], [3449.3938461538464, 3142.4400000000005], [3437.883076923077, 3115.581538461539], [3434.046153846154, 3146.2769230769236], [3384.166153846154, 3150.1138461538467], [3269.058461538462, 3311.264615384616], [3303.5907692307696, 3345.7969230769236], [3380.3292307692313, 3364.981538461539], [3422.535384615385, 3430.209230769231], [3464.7415384615388, 3430.209230769231], [3487.7630769230773, 3453.2307692307695], [3506.9476923076927, 3503.1107692307696], [3529.969230769231, 3518.458461538462], [3564.501538461539, 3434.046153846154], [3552.9907692307697, 3399.5138461538463], [3568.338461538462, 3372.655384615385], [3560.664615384616, 3349.6338461538467], [3606.7076923076925, 3322.775384615385], [3614.3815384615386, 3299.7538461538466], [3652.7507692307695, 3295.9169230769235], [3656.5876923076926, 3269.058461538462], [3683.446153846154, 3246.0369230769234], [3629.729230769231, 3242.2000000000003], [3622.055384615385, 3207.6676923076925], [3614.3815384615386, 3223.015384615385], [3541.4800000000005, 3265.221538461539], [3503.1107692307696, 3230.689230769231], [3480.089230769231, 3246.0369230769234], [3453.2307692307695, 3234.526153846154], [3453.2307692307695, 3199.9938461538463], [3483.926153846154, 3188.483076923077], [3510.784615384616, 3211.5046153846156], [3529.969230769231, 3188.483076923077], [3572.175384615385, 3173.1353846153847], [3522.295384615385, 3130.9292307692313], [3499.2738461538465, 3092.5600000000004]]]}}, {"type": "Feature", "properties": {"id": 17}, "geometry": {"type": "Polygon", "coordinates": [[[2002.8738461538464, 3380.3292307692313], [1891.6030769230772, 3349.6338461538467], [1876.2553846153849, 3357.307692307693], [1857.0707692307694, 3345.7969230769236], [1849.3969230769233, 3322.775384615385], [1791.8430769230772, 3349.6338461538467], [1784.169230769231, 3368.818461538462], [1761.1476923076925, 3380.3292307692313], [1749.6369230769233, 3372.655384615385], [1661.3876923076925, 3418.6984615384617], [1649.8769230769233, 3480.089230769231], [1653.7138461538464, 3506.9476923076927], [1680.572307692308, 3533.8061538461543], [1680.572307692308, 3556.827692307693], [1661.3876923076925, 3568.338461538462], [1684.409230769231, 3583.6861538461544], [1684.409230769231, 3610.5446153846156], [1672.8984615384618, 3618.2184615384617], [1688.2461538461541, 3625.892307692308], [1749.6369230769233, 3595.1969230769237], [1845.5600000000002, 3599.0338461538468], [1872.4184615384618, 3576.0123076923082], [1933.809230769231, 3595.1969230769237], [1949.1569230769232, 3618.2184615384617], [1952.9938461538463, 3510.784615384616], [1983.689230769231, 3395.6769230769232], [2002.8738461538464, 3380.3292307692313]]]}}, {"type": "Feature", "properties": {"id": 18}, "geometry": {"type": "Polygon", "coordinates": [[[2551.5538461538463, 2628.292307692308], [2551.5538461538463, 2666.661538461539], [2517.0215384615385, 2697.3569230769235], [2517.0215384615385, 2762.5846153846155], [2551.5538461538463, 2777.932307692308], [2551.5538461538463, 2793.28], [2520.8584615384616, 2820.138461538462], [2547.716923076923, 2858.5076923076927], [2547.716923076923, 2873.855384615385], [2524.6953846153847, 2889.2030769230773], [2536.206153846154, 2927.572307692308], [2528.5323076923078, 2977.452307692308], [2543.88, 3023.495384615385], [2540.043076923077, 2950.5938461538462], [2586.086153846154, 2912.224615384616], [2559.2276923076925, 2881.529230769231], [2559.2276923076925, 2866.181538461539], [2593.76, 2846.9969230769234], [2609.1076923076926, 2850.8338461538465], [2620.618461538462, 2835.486153846154], [2609.1076923076926, 2685.8461538461543], [2563.0646153846155, 2666.661538461539], [2551.5538461538463, 2628.292307692308]]]}}, {"type": "Feature", "properties": {"id": 19}, "geometry": {"type": "Polygon", "coordinates": [[[3614.3815384615386, 1603.8338461538463], [3602.8707692307694, 1707.4307692307693], [3591.3600000000006, 1722.7784615384617], [3614.3815384615386, 1738.126153846154], [3614.3815384615386, 1757.3107692307694], [3583.6861538461544, 1807.1907692307693], [3587.5230769230775, 1830.2123076923078], [3618.2184615384617, 1864.7446153846156], [3614.3815384615386, 1887.766153846154], [3633.566153846154, 1906.9507692307695], [3633.566153846154, 1952.9938461538463], [3683.446153846154, 1895.4400000000003], [3702.6307692307696, 1887.766153846154], [3721.815384615385, 1899.2769230769234], [3802.39076923077, 1822.5384615384617], [3810.064615384616, 1799.5169230769234], [3614.3815384615386, 1603.8338461538463]]]}}, {"type": "Feature", "properties": {"id": 20}, "geometry": {"type": "Polygon", "coordinates": [[[3936.6830769230774, 1822.5384615384617], [3848.4338461538464, 1972.1784615384618], [3844.5969230769233, 2018.2215384615388], [3813.901538461539, 2029.7323076923078], [3806.227692307693, 2075.7753846153846], [3783.2061538461544, 2083.449230769231], [3733.3261538461543, 2148.6769230769232], [3790.8800000000006, 2183.209230769231], [3760.184615384616, 2436.446153846154], [3794.7169230769236, 2444.1200000000003], [3794.7169230769236, 2482.489230769231], [3817.738461538462, 2497.8369230769235], [3821.575384615385, 2524.6953846153847], [3856.1076923076926, 2482.489230769231], [3936.6830769230774, 2463.3046153846158], [3982.7261538461544, 2336.686153846154], [3929.009230769231, 2325.1753846153847], [3890.6400000000003, 2332.849230769231], [3871.455384615385, 2321.3384615384616], [3871.455384615385, 2286.8061538461543], [3856.1076923076926, 2290.6430769230774], [3829.249230769231, 2275.295384615385], [3836.923076923077, 2190.883076923077], [3856.1076923076926, 2179.372307692308], [3898.3138461538465, 2187.046153846154], [3905.9876923076927, 2137.166153846154], [3944.3569230769235, 2114.1446153846155], [3959.704615384616, 1968.3415384615387], [3998.0738461538467, 1891.6030769230772], [3936.6830769230774, 1822.5384615384617]]]}}, {"type": "Feature", "properties": {"id": 21}, "geometry": {"type": "Polygon", "coordinates": [[[2823.975384615385, 2609.1076923076926], [2823.975384615385, 2632.129230769231], [2812.4646153846156, 2639.8030769230772], [2831.649230769231, 2731.889230769231], [2850.8338461538465, 2754.9107692307693], [2843.1600000000003, 2789.443076923077], [2862.3446153846157, 2854.6707692307696], [2858.5076923076927, 2881.529230769231], [2823.975384615385, 2927.572307692308], [2858.5076923076927, 2985.126153846154], [2919.898461538462, 2912.224615384616], [2900.7138461538466, 2873.855384615385], [2962.1046153846155, 2854.6707692307696], [2977.452307692308, 2823.975384615385], [3008.1476923076925, 2800.9538461538464], [2992.8, 2789.443076923077], [2992.8, 2758.7476923076924], [2916.061538461539, 2624.455384615385], [2885.3661538461542, 2632.129230769231], [2858.5076923076927, 2612.9446153846156], [2823.975384615385, 2609.1076923076926]]]}}, {"type": "Feature", "properties": {"id": 22}, "geometry": {"type": "Polygon", "coordinates": [[[2194.7200000000003, 2712.704615384616], [2148.6769230769232, 2797.1169230769233], [2375.055384615385, 2908.3876923076928], [2386.566153846154, 2885.3661538461542], [2375.055384615385, 2839.323076923077], [2401.9138461538464, 2827.812307692308], [2398.0769230769233, 2804.7907692307695], [2336.686153846154, 2785.606153846154], [2194.7200000000003, 2712.704615384616]]]}}, {"type": "Feature", "properties": {"id": 23}, "geometry": {"type": "Polygon", "coordinates": [[[4431.646153846154, 3161.624615384616], [4454.667692307693, 3196.1569230769232], [4519.895384615385, 3223.015384615385], [4535.243076923078, 3257.5476923076926], [4592.796923076923, 3269.058461538462], [4600.470769230769, 3284.406153846154], [4635.003076923077, 3295.9169230769235], [4638.84, 3318.938461538462], [4661.861538461539, 3311.264615384616], [4842.196923076924, 3418.6984615384617], [4934.283076923078, 3330.4492307692312], [4623.492307692308, 3146.2769230769236], [4431.646153846154, 3161.624615384616]]]}}, {"type": "Feature", "properties": {"id": 24}, "geometry": {"type": "Polygon", "coordinates": [[[3257.5476923076926, 3161.624615384616], [3176.972307692308, 3207.6676923076925], [3169.2984615384617, 3223.015384615385], [3088.7230769230773, 3261.3846153846157], [3104.0707692307697, 3303.5907692307696], [3065.701538461539, 3326.612307692308], [3092.5600000000004, 3372.655384615385], [3111.744615384616, 3384.166153846154], [3111.744615384616, 3407.1876923076925], [3146.2769230769236, 3414.8615384615387], [3157.787692307693, 3399.5138461538463], [3146.2769230769236, 3353.4707692307697], [3161.624615384616, 3330.4492307692312], [3153.9507692307698, 3292.0800000000004], [3173.1353846153847, 3257.5476923076926], [3196.1569230769232, 3246.0369230769234], [3253.7107692307695, 3295.9169230769235], [3257.5476923076926, 3272.895384615385], [3303.5907692307696, 3234.526153846154], [3257.5476923076926, 3161.624615384616]]]}}, {"type": "Feature", "properties": {"id": 25}, "geometry": {"type": "Polygon", "coordinates": [[[3806.227692307693, 3499.2738461538465], [3817.738461538462, 3545.3169230769236], [3779.3692307692313, 3568.338461538462], [3779.3692307692313, 3794.7169230769236], [3844.5969230769233, 3848.4338461538464], [3902.1507692307696, 3925.172307692308], [3929.009230769231, 3902.1507692307696], [3921.335384615385, 3875.292307692308], [3963.541538461539, 3844.5969230769233], [4101.67076923077, 3618.2184615384617], [4097.833846153847, 3583.6861538461544], [3921.335384615385, 3537.6430769230774], [3898.3138461538465, 3522.295384615385], [3875.292307692308, 3533.8061538461543], [3848.4338461538464, 3510.784615384616], [3806.227692307693, 3499.2738461538465]]]}}, {"type": "Feature", "properties": {"id": 26}, "geometry": {"type": "Polygon", "coordinates": [[[2912.224615384616, 3602.8707692307694], [2896.8769230769235, 3656.5876923076926], [2870.018461538462, 3675.772307692308], [2889.2030769230773, 3691.1200000000003], [2885.3661538461542, 3729.489230769231], [2900.7138461538466, 3771.695384615385], [2923.735384615385, 3790.8800000000006], [2958.2676923076924, 3963.541538461539], [2985.126153846154, 3982.7261538461544], [3050.3538461538465, 3998.0738461538467], [2977.452307692308, 3925.172307692308], [3038.843076923077, 3633.566153846154], [3061.8646153846157, 3614.3815384615386], [3092.5600000000004, 3614.3815384615386], [2992.8, 3599.0338461538468], [2950.5938461538462, 3614.3815384615386], [2912.224615384616, 3602.8707692307694]]]}}, {"type": "Feature", "properties": {"id": 27}, "geometry": {"type": "Polygon", "coordinates": [[[3518.458461538462, 3959.704615384616], [3453.2307692307695, 4067.138461538462], [3503.1107692307696, 4124.6923076923085], [3614.3815384615386, 4205.267692307692], [3664.2615384615387, 4140.040000000001], [3660.4246153846157, 4120.855384615385], [3698.7938461538465, 4093.9969230769234], [3691.1200000000003, 4070.975384615385], [3541.4800000000005, 3959.704615384616], [3518.458461538462, 3959.704615384616]]]}}, {"type": "Feature", "properties": {"id": 28}, "geometry": {"type": "Polygon", "coordinates": [[[3215.3415384615387, 2601.4338461538464], [3104.0707692307697, 2716.541538461539], [3107.9076923076927, 2735.726153846154], [3073.375384615385, 2743.4], [2992.8, 2823.975384615385], [2904.5507692307697, 2954.4307692307693], [2854.6707692307696, 3000.4738461538464], [2827.812307692308, 3054.1907692307695], [2797.1169230769233, 3203.8307692307694], [2804.7907692307695, 3238.363076923077], [2785.606153846154, 3249.8738461538464], [2754.9107692307693, 3246.0369230769234], [2731.889230769231, 3219.1784615384618], [2705.0307692307697, 3211.5046153846156], [2693.5200000000004, 3223.015384615385], [2701.1938461538466, 3269.058461538462], [2689.6830769230774, 3284.406153846154], [2708.867692307693, 3295.9169230769235], [2708.867692307693, 3311.264615384616], [2689.6830769230774, 3322.775384615385], [2670.498461538462, 3315.101538461539], [2666.661538461539, 3284.406153846154], [2639.8030769230772, 3307.4276923076927], [2632.129230769231, 3345.7969230769236], [2528.5323076923078, 3437.883076923077], [2628.292307692308, 3549.1538461538466], [2689.6830769230774, 3457.0676923076926], [2662.8246153846158, 3364.981538461539], [2670.498461538462, 3341.9600000000005], [2701.1938461538466, 3341.9600000000005], [2720.378461538462, 3361.144615384616], [2724.215384615385, 3395.6769230769232], [2731.889230769231, 3357.307692307693], [2716.541538461539, 3330.4492307692312], [2731.889230769231, 3318.938461538462], [2728.052307692308, 3288.2430769230773], [2762.5846153846155, 3269.058461538462], [2800.9538461538464, 3299.7538461538466], [2812.4646153846156, 3288.2430769230773], [2800.9538461538464, 3253.7107692307695], [2820.138461538462, 3242.2000000000003], [2854.6707692307696, 3269.058461538462], [2850.8338461538465, 3307.4276923076927], [2823.975384615385, 3326.612307692308], [2800.9538461538464, 3326.612307692308], [2770.2584615384617, 3376.4923076923083], [2774.095384615385, 3391.84], [2839.323076923077, 3372.655384615385], [2858.5076923076927, 3380.3292307692313], [2958.2676923076924, 3318.938461538462], [2931.4092307692313, 3288.2430769230773], [2931.4092307692313, 3269.058461538462], [2969.7784615384617, 3242.2000000000003], [2988.963076923077, 3249.8738461538464], [3046.5169230769234, 3215.3415384615387], [3008.1476923076925, 3192.32], [3008.1476923076925, 3176.972307692308], [3031.169230769231, 3153.9507692307698], [3015.8215384615387, 3127.092307692308], [3054.1907692307695, 3104.0707692307697], [3088.7230769230773, 3115.581538461539], [3092.5600000000004, 3088.7230769230773], [3150.1138461538467, 3046.5169230769234], [3184.646153846154, 3046.5169230769234], [3196.1569230769232, 3081.049230769231], [3123.255384615385, 3123.255384615385], [3084.8861538461542, 3161.624615384616], [3123.255384615385, 3226.852307692308], [3146.2769230769236, 3203.8307692307694], [3249.8738461538464, 3153.9507692307698], [3280.569230769231, 3176.972307692308], [3288.2430769230773, 3199.9938461538463], [3307.4276923076927, 3203.8307692307694], [3349.6338461538467, 3169.2984615384617], [3330.4492307692312, 3142.4400000000005], [3326.612307692308, 3107.9076923076927], [3345.7969230769236, 3077.212307692308], [3407.1876923076925, 3061.8646153846157], [3395.6769230769232, 3054.1907692307695], [3391.84, 3015.8215384615387], [3426.372307692308, 2996.6369230769233], [3403.3507692307694, 2985.126153846154], [3384.166153846154, 2904.5507692307697], [3399.5138461538463, 2889.2030769230773], [3391.84, 2881.529230769231], [3372.655384615385, 2893.0400000000004], [3338.1230769230774, 2873.855384615385], [3345.7969230769236, 2846.9969230769234], [3326.612307692308, 2820.138461538462], [3334.2861538461543, 2797.1169230769233], [3303.5907692307696, 2743.4], [3269.058461538462, 2739.563076923077], [3261.3846153846157, 2716.541538461539], [3226.852307692308, 2735.726153846154], [3199.9938461538463, 2720.378461538462], [3199.9938461538463, 2674.335384615385], [3219.1784615384618, 2666.661538461539], [3242.2000000000003, 2682.009230769231], [3253.7107692307695, 2670.498461538462], [3215.3415384615387, 2601.4338461538464]]]}}, {"type": "Feature", "properties": {"id": 29}, "geometry": {"type": "Polygon", "coordinates": [[[3863.7815384615387, 1550.1169230769233], [3783.2061538461544, 1669.0615384615387], [3882.966153846154, 1749.6369230769233], [3905.9876923076927, 1734.289230769231], [3936.6830769230774, 1753.4738461538464], [3936.6830769230774, 1715.1046153846155], [3975.052307692308, 1680.572307692308], [4001.91076923077, 1599.9969230769232], [3936.6830769230774, 1550.1169230769233], [3909.8246153846158, 1561.6276923076925], [3863.7815384615387, 1550.1169230769233]]]}}, {"type": "Feature", "properties": {"id": 30}, "geometry": {"type": "Polygon", "coordinates": [[[2589.923076923077, 1703.5938461538462], [2616.7815384615387, 2148.6769230769232], [2643.6400000000003, 2167.8615384615387], [2674.335384615385, 2175.535384615385], [2693.5200000000004, 2164.0246153846156], [2712.704615384616, 2175.535384615385], [2701.1938461538466, 2052.7538461538466], [2743.4, 2033.569230769231], [2823.975384615385, 2071.938461538462], [2850.8338461538465, 2098.796923076923], [2904.5507692307697, 2198.5569230769233], [3042.6800000000003, 2221.578461538462], [3054.1907692307695, 2133.329230769231], [3065.701538461539, 2125.6553846153847], [3035.006153846154, 2144.84], [2969.7784615384617, 2117.9815384615385], [2962.1046153846155, 2087.286153846154], [2942.9200000000005, 2094.96], [2896.8769230769235, 2060.4276923076927], [2670.498461538462, 1791.8430769230772], [2612.9446153846156, 1745.8000000000002], [2609.1076923076926, 1718.9415384615386], [2589.923076923077, 1703.5938461538462]]]}}, {"type": "Feature", "properties": {"id": 31}, "geometry": {"type": "Polygon", "coordinates": [[[3265.221538461539, 2286.8061538461543], [3303.5907692307696, 2432.609230769231], [3422.535384615385, 2501.6738461538466], [3430.209230769231, 2532.369230769231], [3499.2738461538465, 2536.206153846154], [3568.338461538462, 2566.9015384615386], [3641.2400000000002, 2513.1846153846154], [3618.2184615384617, 2494.0000000000005], [3614.3815384615386, 2470.978461538462], [3510.784615384616, 2428.772307692308], [3265.221538461539, 2286.8061538461543]]]}}, {"type": "Feature", "properties": {"id": 32}, "geometry": {"type": "Polygon", "coordinates": [[[1995.2000000000003, 2317.5015384615385], [1891.6030769230772, 2555.3907692307694], [1895.4400000000003, 2578.412307692308], [1876.2553846153849, 2589.923076923077], [1999.0369230769234, 2559.2276923076925], [2033.569230769231, 2589.923076923077], [2102.633846153846, 2616.7815384615387], [2110.3076923076924, 2589.923076923077], [2148.6769230769232, 2566.9015384615386], [2187.046153846154, 2470.978461538462], [2225.415384615385, 2455.6307692307696], [2244.6000000000004, 2421.098461538462], [2137.166153846154, 2382.729230769231], [2110.3076923076924, 2355.8707692307694], [2091.123076923077, 2363.5446153846156], [1995.2000000000003, 2317.5015384615385]]]}}, {"type": "Feature", "properties": {"id": 33}, "geometry": {"type": "Polygon", "coordinates": [[[2509.347692307693, 2540.043076923077], [2536.206153846154, 2578.412307692308], [2524.6953846153847, 2639.8030769230772], [2551.5538461538463, 2747.236923076923], [2532.369230769231, 2758.7476923076924], [2547.716923076923, 2835.486153846154], [2524.6953846153847, 2850.8338461538465], [2540.043076923077, 2866.181538461539], [2543.88, 3011.9846153846156], [2643.6400000000003, 3015.8215384615387], [2624.455384615385, 2693.5200000000004], [2612.9446153846156, 2682.009230769231], [2624.455384615385, 2658.9876923076927], [2616.7815384615387, 2586.086153846154], [2601.4338461538464, 2570.7384615384617], [2509.347692307693, 2540.043076923077]]]}}, {"type": "Feature", "properties": {"id": 34}, "geometry": {"type": "Polygon", "coordinates": [[[4182.246153846154, 2589.923076923077], [3978.8892307692313, 2635.966153846154], [4067.138461538462, 2808.6276923076925], [4109.344615384616, 2808.6276923076925], [4132.366153846155, 2793.28], [4182.246153846154, 2589.923076923077]]]}}, {"type": "Feature", "properties": {"id": 35}, "geometry": {"type": "Polygon", "coordinates": [[[3856.1076923076926, 3008.1476923076925], [3840.76, 2996.6369230769233], [3756.347692307693, 3042.6800000000003], [3671.935384615385, 3042.6800000000003], [3645.0769230769233, 3065.701538461539], [3622.055384615385, 3058.0276923076926], [3541.4800000000005, 3092.5600000000004], [3518.458461538462, 3073.375384615385], [3506.9476923076927, 3081.049230769231], [3622.055384615385, 3196.1569230769232], [3679.609230769231, 3226.852307692308], [3717.978461538462, 3215.3415384615387], [3856.1076923076926, 3008.1476923076925]]]}}, {"type": "Feature", "properties": {"id": 36}, "geometry": {"type": "Polygon", "coordinates": [[[2344.36, 3157.787692307693], [2329.012307692308, 3134.7661538461543], [2329.012307692308, 3111.744615384616], [2340.523076923077, 3104.0707692307697], [2332.849230769231, 3019.658461538462], [2294.48, 3038.843076923077], [2275.295384615385, 3035.006153846154], [2110.3076923076924, 3081.049230769231], [2183.209230769231, 3192.32], [2256.1107692307696, 3176.972307692308], [2298.316923076923, 3184.646153846154], [2305.9907692307693, 3169.2984615384617], [2344.36, 3157.787692307693]]]}}, {"type": "Feature", "properties": {"id": 37}, "geometry": {"type": "Polygon", "coordinates": [[[2912.224615384616, 3364.981538461539], [2835.486153846154, 3407.1876923076925], [2823.975384615385, 3403.3507692307694], [2820.138461538462, 3418.6984615384617], [2781.769230769231, 3441.7200000000003], [2762.5846153846155, 3430.209230769231], [2751.0738461538463, 3388.003076923077], [2739.563076923077, 3414.8615384615387], [2743.4, 3445.5569230769233], [2728.052307692308, 3457.0676923076926], [2739.563076923077, 3472.415384615385], [2739.563076923077, 3518.458461538462], [2758.7476923076924, 3529.969230769231], [2747.236923076923, 3560.664615384616], [2785.606153846154, 3752.5107692307697], [2812.4646153846156, 3775.532307692308], [2812.4646153846156, 3794.7169230769236], [2797.1169230769233, 3806.227692307693], [2808.6276923076925, 3817.738461538462], [2808.6276923076925, 3867.618461538462], [2820.138461538462, 3905.9876923076927], [2839.323076923077, 3917.498461538462], [2846.9969230769234, 3955.867692307693], [2823.975384615385, 3971.215384615385], [2831.649230769231, 4009.584615384616], [2858.5076923076927, 4028.7692307692314], [2950.5938461538462, 3982.7261538461544], [2885.3661538461542, 3741.0000000000005], [2858.5076923076927, 3725.652307692308], [2839.323076923077, 3602.8707692307694], [2858.5076923076927, 3591.3600000000006], [2942.9200000000005, 3595.1969230769237], [2969.7784615384617, 3568.338461538462], [3011.9846153846156, 3568.338461538462], [2992.8, 3495.4369230769234], [2912.224615384616, 3364.981538461539]]]}}, {"type": "Feature", "properties": {"id": 38}, "geometry": {"type": "Polygon", "coordinates": [[[3725.652307692308, 3476.252307692308], [3717.978461538462, 3480.089230769231], [3737.1630769230774, 3522.295384615385], [3717.978461538462, 3537.6430769230774], [3687.2830769230773, 3537.6430769230774], [3664.2615384615387, 3506.9476923076927], [3587.5230769230775, 3556.827692307693], [3664.2615384615387, 3683.446153846154], [3694.9569230769234, 3671.935384615385], [3714.141538461539, 3683.446153846154], [3714.141538461539, 3702.6307692307696], [3691.1200000000003, 3733.3261538461543], [3764.021538461539, 3721.815384615385], [3771.695384615385, 3645.0769230769233], [3744.8369230769235, 3637.403076923077], [3737.1630769230774, 3610.5446153846156], [3767.858461538462, 3591.3600000000006], [3760.184615384616, 3560.664615384616], [3802.39076923077, 3537.6430769230774], [3783.2061538461544, 3503.1107692307696], [3725.652307692308, 3476.252307692308]]]}}, {"type": "Feature", "properties": {"id": 39}, "geometry": {"type": "Polygon", "coordinates": [[[4105.507692307693, 3503.1107692307696], [4124.6923076923085, 3526.132307692308], [4120.855384615385, 3556.827692307693], [4143.876923076924, 3622.055384615385], [4197.593846153846, 3622.055384615385], [4220.615384615385, 3648.9138461538464], [4377.929230769231, 3645.0769230769233], [4400.95076923077, 3660.4246153846157], [4423.972307692308, 3645.0769230769233], [4462.341538461539, 3645.0769230769233], [4443.156923076924, 3622.055384615385], [4393.276923076924, 3610.5446153846156], [4389.4400000000005, 3587.5230769230775], [4404.787692307693, 3564.501538461539], [4377.929230769231, 3537.6430769230774], [4351.07076923077, 3480.089230769231], [4205.267692307692, 3491.6000000000004], [4159.224615384615, 3483.926153846154], [4105.507692307693, 3503.1107692307696]]]}}, {"type": "Feature", "properties": {"id": 40}, "geometry": {"type": "Polygon", "coordinates": [[[3134.7661538461543, 3975.052307692308], [3127.092307692308, 4013.421538461539], [3142.4400000000005, 4021.0953846153852], [3161.624615384616, 4013.421538461539], [3180.809230769231, 4024.9323076923083], [3223.015384615385, 4017.258461538462], [3338.1230769230774, 4028.7692307692314], [3391.84, 4017.258461538462], [3445.5569230769233, 4063.3015384615387], [3487.7630769230773, 3998.0738461538467], [3483.926153846154, 3975.052307692308], [3506.9476923076927, 3952.0307692307697], [3441.7200000000003, 3936.6830769230774], [3384.166153846154, 3905.9876923076927], [3380.3292307692313, 3882.966153846154], [3391.84, 3875.292307692308], [3395.6769230769232, 3844.5969230769233], [3364.981538461539, 3875.292307692308], [3249.8738461538464, 3840.76], [3188.483076923077, 3932.8461538461543], [3134.7661538461543, 3975.052307692308]]]}}, {"type": "Feature", "properties": {"id": 41}, "geometry": {"type": "Polygon", "coordinates": [[[3652.7507692307695, 4328.049230769231], [3587.5230769230775, 4377.929230769231], [3556.827692307693, 4366.418461538462], [3506.9476923076927, 4374.092307692308], [3453.2307692307695, 4339.56], [3434.046153846154, 4362.581538461539], [3434.046153846154, 4404.787692307693], [3445.5569230769233, 4412.461538461539], [3437.883076923077, 4443.156923076924], [3399.5138461538463, 4477.6892307692315], [3368.818461538462, 4481.526153846155], [3376.4923076923083, 4504.547692307693], [3322.775384615385, 4554.427692307693], [3318.938461538462, 4581.286153846155], [3292.0800000000004, 4581.286153846155], [3234.526153846154, 4635.003076923077], [3215.3415384615387, 4631.166153846154], [3246.0369230769234, 4646.513846153846], [3242.2000000000003, 4707.904615384616], [3269.058461538462, 4776.969230769231], [3295.9169230769235, 4757.784615384616], [3295.9169230769235, 4734.763076923077], [3341.9600000000005, 4707.904615384616], [3357.307692307693, 4715.578461538462], [3357.307692307693, 4692.556923076923], [3491.6000000000004, 4596.633846153846], [3583.6861538461544, 4431.646153846154], [3625.892307692308, 4389.4400000000005], [3614.3815384615386, 4366.418461538462], [3652.7507692307695, 4328.049230769231]]]}}, {"type": "Feature", "properties": {"id": 42}, "geometry": {"type": "Polygon", "coordinates": [[[4316.538461538462, 2563.0646153846155], [4209.1046153846155, 2582.249230769231], [4197.593846153846, 2593.76], [4136.203076923078, 2839.323076923077], [4186.083076923077, 2827.812307692308], [4220.615384615385, 2839.323076923077], [4339.56, 2708.867692307693], [4339.56, 2632.129230769231], [4324.212307692308, 2620.618461538462], [4316.538461538462, 2563.0646153846155]]]}}, {"type": "Feature", "properties": {"id": 43}, "geometry": {"type": "Polygon", "coordinates": [[[3253.7107692307695, 2490.1630769230774], [3276.732307692308, 2505.5107692307697], [3276.732307692308, 2528.5323076923078], [3246.0369230769234, 2540.043076923077], [3230.689230769231, 2582.249230769231], [3257.5476923076926, 2639.8030769230772], [3303.5907692307696, 2620.618461538462], [3307.4276923076927, 2582.249230769231], [3326.612307692308, 2570.7384615384617], [3349.6338461538467, 2578.412307692308], [3368.818461538462, 2566.9015384615386], [3437.883076923077, 2597.5969230769233], [3395.6769230769232, 2689.6830769230774], [3380.3292307692313, 2697.3569230769235], [3307.4276923076927, 2678.172307692308], [3284.406153846154, 2689.6830769230774], [3361.144615384616, 2823.975384615385], [3407.1876923076925, 2835.486153846154], [3403.3507692307694, 2873.855384615385], [3441.7200000000003, 2916.061538461539], [3476.252307692308, 2992.8], [3533.8061538461543, 3069.538461538462], [3660.4246153846157, 3027.332307692308], [3744.8369230769235, 3015.8215384615387], [3737.1630769230774, 2988.963076923077], [3671.935384615385, 3000.4738461538464], [3656.5876923076926, 2992.8], [3633.566153846154, 2919.898461538462], [3775.532307692308, 2827.812307692308], [3671.935384615385, 2754.9107692307693], [3583.6861538461544, 2620.618461538462], [3499.2738461538465, 2574.575384615385], [3464.7415384615388, 2582.249230769231], [3411.0246153846156, 2563.0646153846155], [3330.4492307692312, 2490.1630769230774], [3295.9169230769235, 2513.1846153846154], [3272.895384615385, 2490.1630769230774], [3253.7107692307695, 2490.1630769230774]]]}}, {"type": "Feature", "properties": {"id": 44}, "geometry": {"type": "Polygon", "coordinates": [[[2497.8369230769235, 2589.923076923077], [2455.6307692307696, 2701.1938461538466], [2459.4676923076927, 2751.0738461538463], [2436.446153846154, 2766.4215384615386], [2424.935384615385, 2800.9538461538464], [2428.772307692308, 2854.6707692307696], [2405.7507692307695, 2870.018461538462], [2398.0769230769233, 2935.2461538461544], [2378.892307692308, 2946.756923076923], [2355.8707692307694, 3008.1476923076925], [2352.0338461538463, 3042.6800000000003], [2367.3815384615386, 3054.1907692307695], [2367.3815384615386, 3081.049230769231], [2355.8707692307694, 3088.7230769230773], [2359.7076923076925, 3203.8307692307694], [2509.347692307693, 3184.646153846154], [2547.716923076923, 3192.32], [2551.5538461538463, 3318.938461538462], [2566.9015384615386, 3322.775384615385], [2647.4769230769234, 3288.2430769230773], [2666.661538461539, 3257.5476923076926], [2666.661538461539, 3226.852307692308], [2705.0307692307697, 3203.8307692307694], [2697.3569230769235, 3165.4615384615386], [2678.172307692308, 3176.972307692308], [2658.9876923076927, 3165.4615384615386], [2658.9876923076927, 3134.7661538461543], [2693.5200000000004, 3127.092307692308], [2689.6830769230774, 3069.538461538462], [2655.1507692307696, 3065.701538461539], [2643.6400000000003, 3023.495384615385], [2543.88, 3031.169230769231], [2524.6953846153847, 3019.658461538462], [2497.8369230769235, 2589.923076923077]]]}}, {"type": "Feature", "properties": {"id": 45}, "geometry": {"type": "Polygon", "coordinates": [[[3556.827692307693, 3388.003076923077], [3587.5230769230775, 3426.372307692308], [3629.729230769231, 3426.372307692308], [3694.9569230769234, 3460.9046153846157], [3760.184615384616, 3457.0676923076926], [3787.0430769230775, 3480.089230769231], [3821.575384615385, 3491.6000000000004], [3844.5969230769233, 3483.926153846154], [3867.618461538462, 3503.1107692307696], [4013.421538461539, 3426.372307692308], [3921.335384615385, 3349.6338461538467], [3902.1507692307696, 3353.4707692307697], [3879.129230769231, 3330.4492307692312], [3813.901538461539, 3311.264615384616], [3783.2061538461544, 3288.2430769230773], [3706.4676923076927, 3261.3846153846157], [3694.9569230769234, 3246.0369230769234], [3671.935384615385, 3269.058461538462], [3671.935384615385, 3299.7538461538466], [3572.175384615385, 3357.307692307693], [3556.827692307693, 3388.003076923077]]]}}, {"type": "Feature", "properties": {"id": 46}, "geometry": {"type": "Polygon", "coordinates": [[[3027.332307692308, 3295.9169230769235], [3004.3107692307694, 3311.264615384616], [3019.658461538462, 3353.4707692307697], [2946.756923076923, 3395.6769230769232], [3019.658461538462, 3499.2738461538465], [3008.1476923076925, 3522.295384615385], [3011.9846153846156, 3564.501538461539], [2973.6153846153848, 3572.175384615385], [2962.1046153846155, 3595.1969230769237], [3008.1476923076925, 3583.6861538461544], [3035.006153846154, 3595.1969230769237], [3058.0276923076926, 3587.5230769230775], [3146.2769230769236, 3610.5446153846156], [3161.624615384616, 3552.9907692307697], [3150.1138461538467, 3541.4800000000005], [3123.255384615385, 3556.827692307693], [3084.8861538461542, 3556.827692307693], [3065.701538461539, 3545.3169230769236], [3073.375384615385, 3487.7630769230773], [3092.5600000000004, 3476.252307692308], [3142.4400000000005, 3476.252307692308], [3161.624615384616, 3487.7630769230773], [3176.972307692308, 3434.046153846154], [3096.3969230769235, 3411.0246153846156], [3027.332307692308, 3295.9169230769235]]]}}, {"type": "Feature", "properties": {"id": 47}, "geometry": {"type": "Polygon", "coordinates": [[[3764.021538461539, 3856.1076923076926], [3648.9138461538464, 4024.9323076923083], [3787.0430769230775, 4120.855384615385], [3886.8030769230772, 3975.052307692308], [3867.618461538462, 3959.704615384616], [3871.455384615385, 3940.5200000000004], [3833.086153846154, 3902.1507692307696], [3764.021538461539, 3856.1076923076926]]]}}, {"type": "Feature", "properties": {"id": 48}, "geometry": {"type": "Polygon", "coordinates": [[[2651.3138461538465, 4093.9969230769234], [2543.88, 4132.366153846155], [2517.0215384615385, 4124.6923076923085], [2517.0215384615385, 4155.387692307692], [2470.978461538462, 4209.1046153846155], [2470.978461538462, 4228.289230769231], [2440.2830769230773, 4251.310769230769], [2382.729230769231, 4335.723076923077], [2436.446153846154, 4604.307692307692], [2451.7938461538465, 4619.655384615385], [2444.1200000000003, 4642.676923076923], [2467.141538461539, 4742.436923076923], [2478.652307692308, 4750.11076923077], [2482.489230769231, 4819.175384615385], [2494.0000000000005, 4830.686153846154], [2643.6400000000003, 4604.307692307692], [2705.0307692307697, 4531.406153846155], [2728.052307692308, 4481.526153846155], [2712.704615384616, 4466.178461538462], [2708.867692307693, 4370.255384615385], [2697.3569230769235, 4362.581538461539], [2651.3138461538465, 4093.9969230769234]]]}}]}